{
  "type": "FeatureCollection",
  "features": [
    {"type":"Feature","properties":{"name":"El Jadida","region":"Doukkala"},"geometry":{"type":"Polygon","coordinates":[[[-8.58,33.18],[-8.42,33.18],[-8.42,33.30],[-8.58,33.30],[-8.58,33.18]]]}},
    {"type":"Feature","properties":{"name":"Azemmour","region":"Doukkala"},"geometry":{"type":"Polygon","coordinates":[[[-8.42,33.26],[-8.28,33.26],[-8.28,33.38],[-8.42,33.38],[-8.42,33.26]]]}},
    {"type":"Feature","properties":{"name":"Sidi Bennour","region":"Doukkala"},"geometry":{"type":"Polygon","coordinates":[[[-8.56,32.55],[-8.28,32.55],[-8.28,32.74],[-8.56,32.74],[-8.56,32.55]]]}},
    {"type":"Feature","properties":{"name":"Ouled Frej","region":"Doukkala"},"geometry":{"type":"Polygon","coordinates":[[[-8.76,32.74],[-8.52,32.74],[-8.52,32.92],[-8.76,32.92],[-8.76,32.74]]]}},
    {"type":"Feature","properties":{"name":"Bir Jdid","region":"Doukkala"},"geometry":{"type":"Polygon","coordinates":[[[-8.10,32.98],[-7.88,32.98],[-7.88,33.16],[-8.10,33.16],[-8.10,32.98]]]}},
    {"type":"Feature","properties":{"name":"Moulay Abdellah","region":"Doukkala"},"geometry":{"type":"Polygon","coordinates":[[[-8.70,33.08],[-8.50,33.08],[-8.50,33.24],[-8.70,33.24],[-8.70,33.08]]]}},
    {"type":"Feature","properties":{"name":"Had Hrara","region":"Doukkala"},"geometry":{"type":"Polygon","coordinates":[[[-8.24,32.66],[-8.02,32.66],[-8.02,32.82],[-8.24,32.82],[-8.24,32.66]]]}},
    {"type":"Feature","properties":{"name":"Tnine Chtouka","region":"Doukkala"},"geometry":{"type":"Polygon","coordinates":[[[-8.34,32.88],[-8.12,32.88],[-8.12,33.04],[-8.34,33.04],[-8.34,32.88]]]}},
    {"type":"Feature","properties":{"name":"Laaounate","region":"Doukkala"},"geometry":{"type":"Polygon","coordinates":[[[-8.24,32.50],[-8.02,32.50],[-8.02,32.68],[-8.24,32.68],[-8.24,32.50]]]}},
    {"type":"Feature","properties":{"name":"Jorf Lasfar","region":"Doukkala"},"geometry":{"type":"Polygon","coordinates":[[[-8.68,32.96],[-8.52,32.96],[-8.52,33.12],[-8.68,33.12],[-8.68,32.96]]]}},
    {"type":"Feature","properties":{"name":"Sidi Smail","region":"Doukkala"},"geometry":{"type":"Polygon","coordinates":[[[-8.44,32.80],[-8.22,32.80],[-8.22,32.96],[-8.44,32.96],[-8.44,32.80]]]}},
    {"type":"Feature","properties":{"name":"Zemamra","region":"Doukkala"},"geometry":{"type":"Polygon","coordinates":[[[-8.64,32.34],[-8.40,32.34],[-8.40,32.54],[-8.64,32.54],[-8.64,32.34]]]}},
    {"type":"Feature","properties":{"name":"Safi","region":"Doukkala"},"geometry":{"type":"Polygon","coordinates":[[[-9.30,32.20],[-9.14,32.20],[-9.14,32.38],[-9.30,32.38],[-9.30,32.20]]]}},
    {"type":"Feature","properties":{"name":"Chemaia","region":"Doukkala"},"geometry":{"type":"Polygon","coordinates":[[[-8.82,32.02],[-8.60,32.02],[-8.60,32.22],[-8.82,32.22],[-8.82,32.02]]]}},
    {"type":"Feature","properties":{"name":"Sebt Gzoula","region":"Doukkala"},"geometry":{"type":"Polygon","coordinates":[[[-8.62,32.12],[-8.38,32.12],[-8.38,32.30],[-8.62,32.30],[-8.62,32.12]]]}},
    {"type":"Feature","properties":{"name":"Marrakech","region":"Marrakech"},"geometry":{"type":"Polygon","coordinates":[[[-8.12,31.56],[-7.94,31.56],[-7.94,31.72],[-8.12,31.72],[-8.12,31.56]]]}},
    {"type":"Feature","properties":{"name":"Tamansourt","region":"Marrakech"},"geometry":{"type":"Polygon","coordinates":[[[-8.24,31.58],[-8.10,31.58],[-8.10,31.72],[-8.24,31.72],[-8.24,31.58]]]}},
    {"type":"Feature","properties":{"name":"Chichaoua","region":"Marrakech"},"geometry":{"type":"Polygon","coordinates":[[[-8.88,31.40],[-8.62,31.40],[-8.62,31.68],[-8.88,31.68],[-8.88,31.40]]]}},
    {"type":"Feature","properties":{"name":"Al Haouz","region":"Marrakech"},"geometry":{"type":"Polygon","coordinates":[[[-7.90,31.20],[-7.52,31.20],[-7.52,31.58],[-7.90,31.58],[-7.90,31.20]]]}},
    {"type":"Feature","properties":{"name":"Amizmiz","region":"Marrakech"},"geometry":{"type":"Polygon","coordinates":[[[-8.26,31.14],[-8.08,31.14],[-8.08,31.40],[-8.26,31.40],[-8.26,31.14]]]}},
    {"type":"Feature","properties":{"name":"Casablanca","region":"Casablanca"},"geometry":{"type":"Polygon","coordinates":[[[-7.72,33.52],[-7.54,33.52],[-7.54,33.66],[-7.72,33.66],[-7.72,33.52]]]}},
    {"type":"Feature","properties":{"name":"Mohammedia","region":"Casablanca"},"geometry":{"type":"Polygon","coordinates":[[[-7.44,33.60],[-7.32,33.60],[-7.32,33.72],[-7.44,33.72],[-7.44,33.60]]]}},
    {"type":"Feature","properties":{"name":"Settat","region":"Settat"},"geometry":{"type":"Polygon","coordinates":[[[-7.68,32.96],[-7.52,32.96],[-7.52,33.12],[-7.68,33.12],[-7.68,32.96]]]}},
    {"type":"Feature","properties":{"name":"Berrechid","region":"Settat"},"geometry":{"type":"Polygon","coordinates":[[[-7.62,33.24],[-7.50,33.24],[-7.50,33.36],[-7.62,33.36],[-7.62,33.24]]]}},
    {"type":"Feature","properties":{"name":"Ben Guerir","region":"Marrakech"},"geometry":{"type":"Polygon","coordinates":[[[-7.96,32.02],[-7.82,32.02],[-7.82,32.14],[-7.96,32.14],[-7.96,32.02]]]}},
    {"type":"Feature","properties":{"name":"Youssoufia","region":"Marrakech"},"geometry":{"type":"Polygon","coordinates":[[[-8.56,32.18],[-8.40,32.18],[-8.40,32.38],[-8.56,32.38],[-8.56,32.18]]]}},
    {"type":"Feature","properties":{"name":"Kelaa des Sraghna","region":"Marrakech"},"geometry":{"type":"Polygon","coordinates":[[[-7.44,32.00],[-7.22,32.00],[-7.22,32.18],[-7.44,32.18],[-7.44,32.00]]]}},
    {"type":"Feature","properties":{"name":"Agadir","region":"Agadir"},"geometry":{"type":"Polygon","coordinates":[[[-9.68,30.32],[-9.52,30.32],[-9.52,30.48],[-9.68,30.48],[-9.68,30.32]]]}},
    {"type":"Feature","properties":{"name":"Inezgane","region":"Agadir"},"geometry":{"type":"Polygon","coordinates":[[[-9.56,30.32],[-9.44,30.32],[-9.44,30.42],[-9.56,30.42],[-9.56,30.32]]]}},
    {"type":"Feature","properties":{"name":"Taroudant","region":"Agadir"},"geometry":{"type":"Polygon","coordinates":[[[-8.94,30.42],[-8.74,30.42],[-8.74,30.58],[-8.94,30.58],[-8.94,30.42]]]}},
    {"type":"Feature","properties":{"name":"Tiznit","region":"Tiznit"},"geometry":{"type":"Polygon","coordinates":[[[-9.76,29.62],[-9.58,29.62],[-9.58,29.76],[-9.76,29.76],[-9.76,29.62]]]}},
    {"type":"Feature","properties":{"name":"Rabat","region":"Rabat"},"geometry":{"type":"Polygon","coordinates":[[[-6.90,33.92],[-6.78,33.92],[-6.78,34.04],[-6.90,34.04],[-6.90,33.92]]]}},
    {"type":"Feature","properties":{"name":"Salé","region":"Rabat"},"geometry":{"type":"Polygon","coordinates":[[[-6.84,34.02],[-6.74,34.02],[-6.74,34.10],[-6.84,34.10],[-6.84,34.02]]]}},
    {"type":"Feature","properties":{"name":"Kénitra","region":"Kénitra"},"geometry":{"type":"Polygon","coordinates":[[[-6.64,34.26],[-6.56,34.26],[-6.56,34.36],[-6.64,34.36],[-6.64,34.26]]]}},
    {"type":"Feature","properties":{"name":"Meknès","region":"Meknès"},"geometry":{"type":"Polygon","coordinates":[[[-5.62,33.86],[-5.50,33.86],[-5.50,33.96],[-5.62,33.96],[-5.62,33.86]]]}},
    {"type":"Feature","properties":{"name":"Fès","region":"Fès"},"geometry":{"type":"Polygon","coordinates":[[[-5.08,33.98],[-4.96,33.98],[-4.96,34.10],[-5.08,34.10],[-5.08,33.98]]]}},
    {"type":"Feature","properties":{"name":"Ifrane","region":"Fès"},"geometry":{"type":"Polygon","coordinates":[[[-5.18,33.44],[-5.02,33.44],[-5.02,33.58],[-5.18,33.58],[-5.18,33.44]]]}},
    {"type":"Feature","properties":{"name":"Khénifra","region":"Beni Mellal"},"geometry":{"type":"Polygon","coordinates":[[[-5.70,32.88],[-5.56,32.88],[-5.56,33.02],[-5.70,33.02],[-5.70,32.88]]]}},
    {"type":"Feature","properties":{"name":"Beni Mellal","region":"Beni Mellal"},"geometry":{"type":"Polygon","coordinates":[[[-6.42,32.30],[-6.28,32.30],[-6.28,32.44],[-6.42,32.44],[-6.42,32.30]]]}},
    {"type":"Feature","properties":{"name":"Fkih Ben Salah","region":"Beni Mellal"},"geometry":{"type":"Polygon","coordinates":[[[-6.72,32.52],[-6.56,32.52],[-6.56,32.66],[-6.72,32.66],[-6.72,32.52]]]}},
    {"type":"Feature","properties":{"name":"Oujda","region":"Oujda"},"geometry":{"type":"Polygon","coordinates":[[[-1.98,34.66],[-1.84,34.66],[-1.84,34.76],[-1.98,34.76],[-1.98,34.66]]]}},
    {"type":"Feature","properties":{"name":"Tanger","region":"Tanger"},"geometry":{"type":"Polygon","coordinates":[[[-5.90,35.72],[-5.74,35.72],[-5.74,35.84],[-5.90,35.84],[-5.90,35.72]]]}},
    {"type":"Feature","properties":{"name":"Tétouan","region":"Tétouan"},"geometry":{"type":"Polygon","coordinates":[[[-5.42,35.56],[-5.32,35.56],[-5.32,35.66],[-5.42,35.66],[-5.42,35.56]]]}},
    {"type":"Feature","properties":{"name":"Ouarzazate","region":"Ouarzazate"},"geometry":{"type":"Polygon","coordinates":[[[-6.96,30.88],[-6.82,30.88],[-6.82,31.02],[-6.96,31.02],[-6.96,30.88]]]}},
    {"type":"Feature","properties":{"name":"Errachidia","region":"Errachidia"},"geometry":{"type":"Polygon","coordinates":[[[-4.46,31.88],[-4.30,31.88],[-4.30,31.98],[-4.46,31.98],[-4.46,31.88]]]}},
    {"type":"Feature","properties":{"name":"Khémisset","region":"Khémisset"},"geometry":{"type":"Polygon","coordinates":[[[-6.10,33.84],[-5.94,33.84],[-5.94,33.96],[-6.10,33.96],[-6.10,33.84]]]}}
  ]
}
